[{"OBJECT_NAME":"SUPERVIEW NEO-2 03","OBJECT_ID":"2024-218B","EPOCH":"2026-03-09T13:29:09.257280","MEAN_MOTION":15.19718665,"ECCENTRICITY":0.0001687,"INCLINATION":97.4399,"RA_OF_ASC_NODE":77.3104,"ARG_OF_PERICENTER":89.5472,"MEAN_ANOMALY":270.5956,"EPHEMERIS_TYPE":0,"CLASSIFICATION_TYPE":"U","NORAD_CAT_ID":62079,"ELEMENT_SET_NO":999,"REV_AT_EPOCH":7131,"BSTAR":0.00018696,"MEAN_MOTION_DOT":3.926e-5,"MEAN_MOTION_DDOT":0},{"OBJECT_NAME":"HAWK-12C","OBJECT_ID":"2025-138A","EPOCH":"2026-03-09T22:54:55.356768","MEAN_MOTION":15.17353041,"ECCENTRICITY":0.00157924,"INCLINATION":97.4363,"RA_OF_ASC_NODE":73.1446,"ARG_OF_PERICENTER":124.4693,"MEAN_ANOMALY":235.8035,"EPHEMERIS_TYPE":0,"CLASSIFICATION_TYPE":"U","NORAD_CAT_ID":64621,"ELEMENT_SET_NO":999,"REV_AT_EPOCH":3881,"BSTAR":0.00031482945,"MEAN_MOTION_DOT":6.237e-5,"MEAN_MOTION_DDOT":0}]
